TDRS 3                  
1 19548U 88091B   26057.84610155 -.00000306  00000+0  00000+0 0  9991
2 19548  12.6852 341.7287 0044225 351.9002  78.3575  1.00261626124288
FLTSATCOM 8 (USA 46)    
1 20253U 89077A   26057.70253003 -.00000374  00000+0  00000+0 0  9996
2 20253  12.4516 351.8249 0008714 332.8651 210.4083  1.00265970259456
SKYNET 4C               
1 20776U 90079A   26055.96088753  .00000125  00000+0  00000+0 0  9997
2 20776  13.3751 350.5763 0003434 331.8955 211.7314  1.00276088129767
TDRS 5                  
1 21639U 91054B   26058.02266954  .00000077  00000+0  00000+0 0  9997
2 21639  14.0848 354.5916 0011436 275.6792  87.3536  1.00263582126619
TDRS 6                  
1 22314U 93003B   26058.24387410 -.00000304  00000+0  00000+0 0  9993
2 22314  14.1805 357.8731 0005687 202.6373 358.2471  1.00280656121301
UFO 2 (USA 95)          
1 22787U 93056A   26057.97837884  .00000116  00000+0  00000+0 0  9999
2 22787  11.8560   4.1507 0008899 334.0516 199.4844  1.00270294117443
USA 99 (MILSTAR-1 1)    
1 22988U 94009A   26057.40858476 -.00000208  00000+0  00000+0 0  9992
2 22988  17.4534  28.8998 0004208 296.0658 248.3853  1.00273441 31840
UFO 4 (USA 108)         
1 23467U 95003A   26058.12790816 -.00000032  00000+0  00000+0 0  9998
2 23467   9.6670  13.5865 0003579 327.6528  34.0389  1.00271952113859
TDRS 7                  
1 23613U 95035B   26057.79799558 -.00000245  00000+0  00000+0 0  9996
2 23613  13.4226 348.9473 0008009  46.3565 137.5216  1.00277976112142
USA 115 (MILSTAR-1 2)   
1 23712U 95060A   26057.50806939 -.00000028  00000+0  00000+0 0  9994
2 23712  14.0332   4.5669 0003915 329.6239 245.0539  1.00273452 31772
INMARSAT 3-F1           
1 23839U 96020A   26057.66903610  .00000038  00000+0  00000+0 0  9992
2 23839  10.3717  47.6369 0006252 266.4883  99.2155  0.99995326109152
INMARSAT 3-F2           
1 24307U 96053A   26057.63034267 -.00000102  00000+0  00000+0 0  9992
2 24307   9.6067  55.0465 0006041 287.6043 301.5798  0.99978520107811
INMARSAT 3-F3           
1 24674U 96070A   26058.20600223 -.00000218  00000+0  00000+0 0  9991
2 24674  10.0811  50.6925 0007013 267.2618  69.6038  1.00002373106809
AMC-3                   
1 24936U 97050A   26057.71885080 -.00000274  00000+0  00000+0 0  9994
2 24936   7.8749  65.3381 0003383 274.1190   3.8759  1.00271093 51324
USA 134                 
1 25019U 97065A   26057.56467248 -.00000073  00000+0  00000+0 0  9995
2 25019  12.6530  22.5397 0007021 300.7127 284.3510  1.00271029 31845
INMARSAT 3-F5           
1 25153U 98006B   26057.97197258 -.00000303  00000+0  00000+0 0  9992
2 25153   9.4471  54.3376 0005280 286.0776 112.3027  1.00269514102795
ABS-6                   
1 25924U 99053A   26058.19656771 -.00000134  00000+0  00000+0 0  9998
2 25924   0.0591 263.9895 0003212  51.2686  71.5333  1.00272565 96732
UFO 10 (USA 146)        
1 25967U 99063A   26057.73264973 -.00000198  00000+0  00000+0 0  9994
2 25967   9.8404  27.8208 0005403 291.5582  78.0643  1.00274671 96244
ASIASTAR                
1 26107U 00016A   26057.90061124 -.00000346  00000+0  00000+0 0  9998
2 26107   8.8735  59.3206 0004443 280.2188 246.4098  1.00273668 94816
USA 149 (DSP 20)        
1 26356U 00024A   26058.06100120  .00000085  00000+0  00000+0 0  9990
2 26356  13.0876  12.6240 0001892 355.6510   5.1611  1.00273281 31810
TDRS 8                  
1 26388U 00034A   26057.89662455 -.00000206  00000+0  00000+0 0  9996
2 26388  12.5098  32.2424 0006182 304.6984 227.2359  1.00277524 94070
NSS-11                  
1 26554U 00059A   26058.19994772  .00000010  00000+0  00000+0 0  9994
2 26554   1.8420  82.7376 0003169 253.3163  68.9405  1.00271956 40180
USA 153                 
1 26575U 00065A   26057.83509094 -.00000335  00000+0  00000+0 0  9994
2 26575  11.4353  36.3172 0002317 338.8881 216.5190  1.00271048 31829
AMC-6                   
1 26580U 00067A   26058.19628302  .00000074  00000+0  00000+0 0  9995
2 26580   0.0550 300.4609 0003158  32.2744 119.8853  1.00273917 92796
USA 157 (MILSTAR-2 2)   
1 26715U 01009A   26058.06403455  .00000100  00000+0  00000+0 0  9998
2 26715  11.4216  20.4328 0038575 183.8149 185.6493  1.00276725 31841
INTELSAT 10 (IS-10)     
1 26766U 01019A   26057.61522514 -.00000237  00000+0  00000+0 0  9995
2 26766   8.8115  60.3804 0006073 257.2496 229.1301  0.99043511 44484
USA 159 (DSP 21)        
1 26880U 01033A   26057.22824735 -.00000306  00000+0  00000+0 0  9992
2 26880  12.6786  17.2117 0002834 204.2017 327.7367  1.00273874 31852
INTELSAT 902 (IS-902)   
1 26900U 01039A   26057.94142465 -.00000297  00000+0  00000+0 0  9992
2 26900   5.8387  73.1320 0004599 269.2942 103.1573  1.00272327 89592
USA 164 (MILSTAR-2 3)   
1 27168U 02001A   26058.09748802  .00000087  00000+0  00000+0 0  9999
2 27168  11.0503  22.5618 0098824   4.3769 184.0908  1.00266738 31850
INTELSAT 904 (IS-904)   
1 27380U 02007A   26057.87357110 -.00000239  00000+0  00000+0 0  9994
2 27380   6.6444  70.5073 0005769 301.8589  67.3209  1.00271028 50664
DIRECTV 5 (TEMPO 1)     
1 27426U 02023A   26058.14324822 -.00000071  00000+0  00000+0 0  9992
2 27426   4.5964  76.6868 0003569 260.9989 120.7428  1.00271385 87026
INTELSAT 905 (IS-905)   
1 27438U 02027A   26057.06815963  .00000083  00000+0  00000+0 0  9992
2 27438   6.4740  71.1375 0003033 266.5056  65.6055  1.00272444 50242
GALAXY 3C (G-3C)        
1 27445U 02030A   26058.24137087 -.00000167  00000+0  00000+0 0  9993
2 27445   3.4511  79.5292 0000723  43.9672  25.6214  1.00271147 45399
INTELSAT 906 (IS-906)   
1 27513U 02041A   26058.17765505 -.00000001  00000+0  00000+0 0  9992
2 27513   5.5229  74.2805 0003317 250.7730 320.0465  1.00271908 85929
NIMIQ 2                 
1 27632U 02062A   26058.07209457 -.00000082  00000+0  00000+0 0  9994
2 27632   9.1915  58.0387 0006467 281.3120  94.2977  1.00272036 43082
USA 167                 
1 27691U 03008A   26058.06958124 -.00000008  00000+0  00000+0 0  9999
2 27691  10.7432  44.3796 0005878 285.6589  90.1857  1.00270903  5678
USA 169 (MILSTAR-2 4)   
1 27711U 03012A   26058.20600223 -.00000208  00000+0  00000+0 0  9999
2 27711  12.1831  30.7196 0099903   3.2489 349.3694  1.00272858 31845
ASIASAT 4               
1 27718U 03014A   26057.90901794 -.00000236  00000+0  00000+0 0  9992
2 27718   4.4222  77.1408 0002648 265.1262 289.2726  1.00271776 44197
HELLAS-SAT 2            
1 27811U 03020A   26057.80649914 -.00000097  00000+0  00000+0 0  9990
2 27811   7.0798  69.2000 0008349 237.3076 130.4333  1.00271893 41745
THURAYA-2               
1 27825U 03026A   26058.03118773  .00000114  00000+0  00000+0 0  9990
2 27825   8.6689  32.4037 0003399 308.2284 231.4510  1.00272038 83249
OPTUS C1                
1 27831U 03028B   26058.20600223 -.00000165  00000+0  00000+0 0  9991
2 27831   6.6144  70.7401 0006198 267.6839  48.5294  1.00271425 51952
USA 170                 
1 27875U 03040A   26058.19018068  .00000114  00000+0  00000+0 0  9994
2 27875  10.2677  48.9735 0001494 274.0192 286.6597  1.00274764 31898
GALAXY 13 (HORIZONS-1)  
1 27954U 03044A   26058.25070058  .00000118  00000+0  00000+0 0  9994
2 27954   1.1337  85.3922 0002179 252.7036 119.2179  1.00270264 45479
YAMAL 202               
1 28089U 03053A   26057.84089763 -.00000094  00000+0  00000+0 0  9995
2 28089   6.0637  72.2894 0005720 237.1680 313.4219  1.00272370 81592
UFO 11 (USA 174)        
1 28117U 03057A   26057.97386181 -.00000114  00000+0  00000+0 0  9992
2 28117   8.8356  34.3532 0003582 287.8587 260.5984  1.00272371 81347
USA 176 (DSP 22)        
1 28158U 04004A   26058.24027251 -.00000171  00000+0  00000+0 0  9994
2 28158  11.9132  26.8697 0002839 267.7004 212.5581  1.00272601 31837
ABS-4 (MOBISAT-1)       
1 28184U 04007A   26058.17713505  .00000025  00000+0  00000+0 0  9999
2 28184   5.7629  73.3507 0005344 267.9570 300.4353  1.00270548 51237
EUTELSAT 139 WEST A     
1 28187U 04008A   26057.94419750 -.00000250  00000+0  00000+0 0  9993
2 28187   5.5488  73.3327 0000715  83.8174 291.1093  1.00834652 80256
AMC-11                  
1 28252U 04017A   26058.23725544 -.00000064  00000+0  00000+0 0  9993
2 28252   0.0271  76.6399 0003233 259.5661 155.1528  1.00271118 79763
INTELSAT 10-02          
1 28358U 04022A   26058.09358800 -.00000025  00000+0  00000+0 0  9994
2 28358   0.0126 115.0951 0001091 237.8300 196.6891  1.00270249 79453
ANIK F2                 
1 28378U 04027A   26058.20880918 -.00000064  00000+0  00000+0 0  9997
2 28378   3.0001  80.9235 0002744 286.7911 113.3651  1.00271427 40167
AMC-15                  
1 28446U 04041A   26058.23079550 -.00000103  00000+0  00000+0 0  9998
2 28446   0.0651 287.6325 0002434  47.9067 159.5365  1.00272276 78205
NSS-10                  
1 28526U 05003A   26058.17451660 -.00000266  00000+0  00000+0 0  9995
2 28526   6.1740  71.7839 0003251 261.7107 208.8703  1.00272385 52051
INMARSAT 4-F1           
1 28628U 05009A   26058.20038105  .00000020  00000+0  00000+0 0  9990
2 28628   5.0203  42.7298 0002459 314.7066  49.8225  1.00272156 76576
DIRECTV 8               
1 28659U 05019A   26058.18517059  .00000000  00000+0  00000+0 0  9990
2 28659   0.0263 133.7087 0003254 211.9396 118.9865  1.00270159 75978
GALAXY 28 (G-28)        
1 28702U 05022A   26058.22490446 -.00000215  00000+0  00000+0 0  9997
2 28702   3.0148  80.3241 0002481 269.9299 220.6593  1.00270666 50871
THAICOM 4               
1 28786U 05028A   26057.69692926 -.00000375  00000+0  00000+0 0  9999
2 28786   0.0339 265.0017 0001832  91.4828 170.4487  1.00264136 51140
ANIK F1R                
1 28868U 05036A   26058.14385488 -.00000089  00000+0  00000+0 0  9994
2 28868   4.0309  77.9587 0002526 285.6343  97.8661  1.00271451 45354
SYRACUSE 3A             
1 28885U 05041B   26058.16850153  .00000116  00000+0  00000+0 0  9997
2 28885   4.3616  77.2119 0003641 263.6341 283.0205  1.00269709 74644
